start=new Date('2022-05-05T00:00:00.000Z').valueOf();
sats=[{"ECCENTRICITY":"0.00018760","CLASSIFICATION_TYPE":"U","APOAPSIS":"548.552","TLE_LINE2":"2 47632  53.0528 162.9020 0001876  51.2607 332.2715 15.06387275 69068","SEMIMAJOR_AXIS":"6925.388","BSTAR":"0.00249150000000","OBJECT_NAME":"STARLINK-1992","ELEMENT_SET_NO":"999","RA_OF_ASC_NODE":"162.9020","REV_AT_EPOCH":"6906","MEAN_ELEMENT_THEORY":"SGP4","TIME_SYSTEM":"UTC","OBJECT_TYPE":"PAYLOAD","EPHEMERIS_TYPE":"0","OBJECT_ID":"2021-012N","NORAD_CAT_ID":"47632","INCLINATION":"53.0528","EPOCH":"2022-05-04T22:00:01.999584","TLE_LINE1":"1 47632U 21012N   22124.91668981  .00037012  00000-0  24915-2 0  9993","CENTER_NAME":"EARTH","MEAN_MOTION_DDOT":"0.0000000000000","MEAN_MOTION_DOT":"0.00037012","MEAN_ANOMALY":"332.2715","LAUNCH_DATE":"2021-02-16","MEAN_MOTION":"15.06387275","SITE":"AFETR","RCS_SIZE":"LARGE","PERIAPSIS":"545.953","COUNTRY_CODE":"US","DECAY_DATE":null,"ARG_OF_PERICENTER":"51.2607","GP_ID":"202686822","REF_FRAME":"TEME","PERIOD":"95.593","FILE":"3428845"},{"COUNTRY_CODE":"US","DECAY_DATE":null,"PERIOD":"95.591","REF_FRAME":"TEME","GP_ID":"202714869","ARG_OF_PERICENTER":"61.2729","FILE":"3429148","LAUNCH_DATE":"2021-02-16","MEAN_ANOMALY":"298.8430","MEAN_MOTION_DDOT":"0.0000000000000","MEAN_MOTION_DOT":"0.00003177","MEAN_MOTION":"15.06412337","RCS_SIZE":"LARGE","SITE":"AFETR","PERIAPSIS":"546.002","TIME_SYSTEM":"UTC","REV_AT_EPOCH":"6825","MEAN_ELEMENT_THEORY":"SGP4","OBJECT_TYPE":"PAYLOAD","EPHEMERIS_TYPE":"0","OBJECT_ID":"2021-012P","NORAD_CAT_ID":"47633","INCLINATION":"53.0543","CENTER_NAME":"EARTH","TLE_LINE1":"1 47633U 21012P   22124.79582833  .00003177  00000-0  23203-3 0  9996","EPOCH":"2022-05-04T19:05:59.567712","ECCENTRICITY":"0.00016950","CLASSIFICATION_TYPE":"U","TLE_LINE2":"2 47633  53.0543 258.4267 0001695  61.2729 298.8430 15.06412337 68254","APOAPSIS":"548.350","OBJECT_NAME":"STARLINK-2009","BSTAR":"0.00023203000000","SEMIMAJOR_AXIS":"6925.311","ELEMENT_SET_NO":"999","RA_OF_ASC_NODE":"258.4267"},{"RCS_SIZE":"LARGE","SITE":"AFETR","PERIAPSIS":"546.017","LAUNCH_DATE":"2021-02-16","MEAN_MOTION_DDOT":"0.0000000000000","MEAN_MOTION_DOT":"0.00010168","MEAN_ANOMALY":"293.5635","MEAN_MOTION":"15.06424696","DECAY_DATE":null,"REF_FRAME":"TEME","PERIOD":"95.591","GP_ID":"202715119","ARG_OF_PERICENTER":"66.5524","FILE":"3429148","COUNTRY_CODE":"US","ELEMENT_SET_NO":"999","RA_OF_ASC_NODE":"258.8280","ECCENTRICITY":"0.00016190","CLASSIFICATION_TYPE":"U","TLE_LINE2":"2 47634  53.0541 258.8280 0001619  66.5524 293.5635 15.06424696 68215","APOAPSIS":"548.259","BSTAR":"0.00070007000000","OBJECT_NAME":"STARLINK-2010","SEMIMAJOR_AXIS":"6925.273","OBJECT_ID":"2021-012Q","NORAD_CAT_ID":"47634","INCLINATION":"53.0541","CENTER_NAME":"EARTH","EPOCH":"2022-05-04T16:58:36.503616","TLE_LINE1":"1 47634U 21012Q   22124.70736694  .00010168  00000-0  70007-3 0  9996","TIME_SYSTEM":"UTC","REV_AT_EPOCH":"6821","MEAN_ELEMENT_THEORY":"SGP4","OBJECT_TYPE":"PAYLOAD","EPHEMERIS_TYPE":"0"},{"COUNTRY_CODE":"US","FILE":"3429148","REF_FRAME":"TEME","PERIOD":"95.593","GP_ID":"202716367","ARG_OF_PERICENTER":"59.0519","DECAY_DATE":null,"MEAN_MOTION":"15.06386372","LAUNCH_DATE":"2021-02-16","MEAN_MOTION_DDOT":"0.0000000000000","MEAN_ANOMALY":"219.3728","MEAN_MOTION_DOT":"0.00005801","PERIAPSIS":"546.163","RCS_SIZE":"LARGE","SITE":"AFETR","EPHEMERIS_TYPE":"0","OBJECT_TYPE":"PAYLOAD","TIME_SYSTEM":"UTC","MEAN_ELEMENT_THEORY":"SGP4","REV_AT_EPOCH":"360","CENTER_NAME":"EARTH","TLE_LINE1":"1 47635U 21012R   22124.91668981  .00005801  00000-0  40813-3 0  9993","EPOCH":"2022-05-04T22:00:01.999584","INCLINATION":"53.0610","NORAD_CAT_ID":"47635","OBJECT_ID":"2021-012R","OBJECT_NAME":"STARLINK-2012","BSTAR":"0.00040813000000","SEMIMAJOR_AXIS":"6925.390","TLE_LINE2":"2 47635  53.0610 162.8166 0001577  59.0519 219.3728 15.06386372  3603","APOAPSIS":"548.347","CLASSIFICATION_TYPE":"U","ECCENTRICITY":"0.00015770","RA_OF_ASC_NODE":"162.8166","ELEMENT_SET_NO":"999"},{"OBJECT_NAME":"STARLINK-2013","BSTAR":"-0.00008041500000","SEMIMAJOR_AXIS":"6925.367","TLE_LINE2":"2 47636  53.0551 239.7859 0001206  80.7023 279.4102 15.06393842 68469","APOAPSIS":"548.068","CLASSIFICATION_TYPE":"U","ECCENTRICITY":"0.00012060","RA_OF_ASC_NODE":"239.7859","ELEMENT_SET_NO":"999","EPHEMERIS_TYPE":"0","OBJECT_TYPE":"PAYLOAD","TIME_SYSTEM":"UTC","REV_AT_EPOCH":"6846","MEAN_ELEMENT_THEORY":"SGP4","CENTER_NAME":"EARTH","EPOCH":"2022-05-04T11:53:25.431072","TLE_LINE1":"1 47636U 21012S   22124.49543323 -.00001479  00000-0 -80415-4 0  9991","INCLINATION":"53.0551","NORAD_CAT_ID":"47636","OBJECT_ID":"2021-012S","MEAN_MOTION":"15.06393842","LAUNCH_DATE":"2021-02-16","MEAN_ANOMALY":"279.4102","MEAN_MOTION_DDOT":"0.0000000000000","MEAN_MOTION_DOT":"-0.00001479","PERIAPSIS":"546.397","RCS_SIZE":"LARGE","SITE":"AFETR","COUNTRY_CODE":"US","FILE":"3428698","REF_FRAME":"TEME","PERIOD":"95.593","GP_ID":"202681216","ARG_OF_PERICENTER":"80.7023","DECAY_DATE":null},{"MEAN_MOTION":"15.06417367","LAUNCH_DATE":"2021-02-16","MEAN_MOTION_DDOT":"0.0000000000000","MEAN_ANOMALY":"313.0815","MEAN_MOTION_DOT":"0.00006023","RCS_SIZE":"LARGE","SITE":"AFETR","PERIAPSIS":"545.869","COUNTRY_CODE":"US","PERIOD":"95.591","REF_FRAME":"TEME","ARG_OF_PERICENTER":"47.0330","GP_ID":"202715370","DECAY_DATE":null,"FILE":"3429148","CLASSIFICATION_TYPE":"U","ECCENTRICITY":"0.00018650","BSTAR":"0.00042272000000","OBJECT_NAME":"STARLINK-2014","SEMIMAJOR_AXIS":"6925.295","TLE_LINE2":"2 47637  53.0554 238.7268 0001865  47.0330 313.0815 15.06417367 68515","APOAPSIS":"548.452","ELEMENT_SET_NO":"999","RA_OF_ASC_NODE":"238.7268","OBJECT_TYPE":"PAYLOAD","TIME_SYSTEM":"UTC","REV_AT_EPOCH":"6851","MEAN_ELEMENT_THEORY":"SGP4","EPHEMERIS_TYPE":"0","NORAD_CAT_ID":"47637","OBJECT_ID":"2021-012T","CENTER_NAME":"EARTH","EPOCH":"2022-05-04T17:33:06.448032","TLE_LINE1":"1 47637U 21012T   22124.73132463  .00006023  00000-0  42272-3 0  9994","INCLINATION":"53.0554"},{"OBJECT_NAME":"STARLINK-2015","BSTAR":"0.00023532000000","SEMIMAJOR_AXIS":"6925.314","TLE_LINE2":"2 47638  53.0486 163.4433 0001564  64.2629 295.8521 15.06411216 69548","APOAPSIS":"548.262","CLASSIFICATION_TYPE":"U","ECCENTRICITY":"0.00015640","RA_OF_ASC_NODE":"163.4433","ELEMENT_SET_NO":"999","EPHEMERIS_TYPE":"0","OBJECT_TYPE":"PAYLOAD","TIME_SYSTEM":"UTC","REV_AT_EPOCH":"6954","MEAN_ELEMENT_THEORY":"SGP4","CENTER_NAME":"EARTH","EPOCH":"2022-05-04T19:05:19.241376","TLE_LINE1":"1 47638U 21012U   22124.79536159  .00003226  00000-0  23532-3 0  9991","INCLINATION":"53.0486","NORAD_CAT_ID":"47638","OBJECT_ID":"2021-012U","MEAN_MOTION":"15.06411216","LAUNCH_DATE":"2021-02-16","MEAN_MOTION_DDOT":"0.0000000000000","MEAN_MOTION_DOT":"0.00003226","MEAN_ANOMALY":"295.8521","PERIAPSIS":"546.096","RCS_SIZE":"LARGE","SITE":"AFETR","COUNTRY_CODE":"US","FILE":"3429148","REF_FRAME":"TEME","PERIOD":"95.591","ARG_OF_PERICENTER":"64.2629","GP_ID":"202715620","DECAY_DATE":null},{"CENTER_NAME":"EARTH","TLE_LINE1":"1 47639U 21012V   22124.84191147  .00009741  00000-0  67151-3 0  9995","EPOCH":"2022-05-04T20:12:21.151008","INCLINATION":"53.0550","NORAD_CAT_ID":"47639","OBJECT_ID":"2021-012V","EPHEMERIS_TYPE":"0","OBJECT_TYPE":"PAYLOAD","TIME_SYSTEM":"UTC","MEAN_ELEMENT_THEORY":"SGP4","REV_AT_EPOCH":"6850","RA_OF_ASC_NODE":"238.2249","ELEMENT_SET_NO":"999","BSTAR":"0.00067151000000","OBJECT_NAME":"STARLINK-2016","SEMIMAJOR_AXIS":"6925.278","TLE_LINE2":"2 47639  53.0550 238.2249 0001604  57.7815 302.3329 15.06423181 68505","APOAPSIS":"548.253","CLASSIFICATION_TYPE":"U","ECCENTRICITY":"0.00016040","FILE":"3429148","PERIOD":"95.591","REF_FRAME":"TEME","GP_ID":"202715868","ARG_OF_PERICENTER":"57.7815","DECAY_DATE":null,"COUNTRY_CODE":"US","PERIAPSIS":"546.032","RCS_SIZE":"LARGE","SITE":"AFETR","MEAN_MOTION":"15.06423181","LAUNCH_DATE":"2021-02-16","MEAN_MOTION_DOT":"0.00009741","MEAN_MOTION_DDOT":"0.0000000000000","MEAN_ANOMALY":"302.3329"},{"EPHEMERIS_TYPE":"0","MEAN_ELEMENT_THEORY":"SGP4","REV_AT_EPOCH":"6823","TIME_SYSTEM":"UTC","OBJECT_TYPE":"PAYLOAD","INCLINATION":"53.0545","TLE_LINE1":"1 47640U 21012W   22124.77002845  .00002247  00000-0  16967-3 0  9998","EPOCH":"2022-05-04T18:28:50.458080","CENTER_NAME":"EARTH","OBJECT_ID":"2021-012W","NORAD_CAT_ID":"47640","APOAPSIS":"548.355","TLE_LINE2":"2 47640  53.0545 258.5426 0001661  51.9860 308.1279 15.06402783 68235","SEMIMAJOR_AXIS":"6925.340","OBJECT_NAME":"STARLINK-2018","BSTAR":"0.00016967000000","ECCENTRICITY":"0.00016610","CLASSIFICATION_TYPE":"U","RA_OF_ASC_NODE":"258.5426","ELEMENT_SET_NO":"999","COUNTRY_CODE":"US","FILE":"3429148","DECAY_DATE":null,"ARG_OF_PERICENTER":"51.9860","GP_ID":"202716615","REF_FRAME":"TEME","PERIOD":"95.592","MEAN_MOTION_DDOT":"0.0000000000000","MEAN_ANOMALY":"308.1279","MEAN_MOTION_DOT":"0.00002247","LAUNCH_DATE":"2021-02-16","MEAN_MOTION":"15.06402783","PERIAPSIS":"546.055","SITE":"AFETR","RCS_SIZE":"LARGE"},{"ARG_OF_PERICENTER":"50.8441","GP_ID":"202687475","PERIOD":"95.593","REF_FRAME":"TEME","DECAY_DATE":null,"FILE":"3428883","COUNTRY_CODE":"US","SITE":"AFETR","RCS_SIZE":"LARGE","PERIAPSIS":"545.938","MEAN_MOTION":"15.06381091","MEAN_ANOMALY":"327.5917","MEAN_MOTION_DDOT":"0.0000000000000","MEAN_MOTION_DOT":"0.00025563","LAUNCH_DATE":"2021-02-16","NORAD_CAT_ID":"47641","OBJECT_ID":"2021-012X","TLE_LINE1":"1 47641U 21012X   22124.91668981  .00025563  00000-0  17297-2 0  9996","EPOCH":"2022-05-04T22:00:01.999584","CENTER_NAME":"EARTH","INCLINATION":"53.0540","OBJECT_TYPE":"PAYLOAD","REV_AT_EPOCH":"6906","MEAN_ELEMENT_THEORY":"SGP4","TIME_SYSTEM":"UTC","EPHEMERIS_TYPE":"0","ELEMENT_SET_NO":"999","RA_OF_ASC_NODE":"162.8960","CLASSIFICATION_TYPE":"U","ECCENTRICITY":"0.00019250","SEMIMAJOR_AXIS":"6925.407","BSTAR":"0.00172970000000","OBJECT_NAME":"STARLINK-2019","APOAPSIS":"548.605","TLE_LINE2":"2 47641  53.0540 162.8960 0001925  50.8441 327.5917 15.06381091 69061"}];
